[
    {
        "Altitude(m)": 604969.0890349188,
        "Argument of Periapsis(deg)": 0.0,
        "Eccentricity": 0.0,
        "Inclination(deg)": 60.0,
        "Latitude(deg)": -0.09257599862924114,
        "Longitude(deg)": 149.97752748631976,
        "Mean Anomaly(deg)": 0.0,
        "RAAN(deg)": 250.00000000000003,
        "Satellite Name": "Test1 1100",
        "Satellite Number": 1100,
        "Semi-Major Axis(m)": 6980739.136638005,
        "Time(s)": 0
    },
    {
        "Altitude(m)": 604900.0291211028,
        "Argument of Periapsis(deg)": 0.00010418945913296404,
        "Eccentricity": 0.0,
        "Inclination(deg)": 60.0,
        "Latitude(deg)": 0.4478495479662886,
        "Longitude(deg)": 150.24565121086295,
        "Mean Anomaly(deg)": 0.620106145461853,
        "RAAN(deg)": 249.99957995086027,
        "Satellite Name": "Test1 1100",
        "Satellite Number": 1100,
        "Semi-Major Axis(m)": 6980739.136638005,
        "Time(s)": 10
    }
]